NORAD_CAT_ID,OBJECT_NAME,OBJECT_TYPE,EPOCH,MEAN_MOTION,ECCENTRICITY,INCLINATION,RA_OF_ASC_NODE,ARG_OF_PERICENTER,MEAN_ANOMALY,BSTAR,MEAN_MOTION_DOT,MEAN_MOTION_DDOT,TLE_LINE0,TLE_LINE1,TLE_LINE2,SEMIMAJOR_AXIS,PERIOD,APOGEE,PERIGEE,DECAYED
52551.0,STARLINK-3969,PAYLOAD,2024-02-04 01:32:21,15.08844605,0.0001676,53.2193,321.6623,88.033,272.0854,7.7552e-05,9.47e-06,0.0,0 STARLINK-3969,1 52551U 22051U   24035.06413914  .00000947  00000-0  77552-4 0  9990,2 52551  53.2193 321.6623 0001676  88.0330 272.0854 15.08844605 96080,6917.866,95.437,540.891,538.572,0.0
52551.0,STARLINK-3969,PAYLOAD,2024-02-04 19:01:36,15.08840893,0.0001745,53.2202,318.3919,97.8617,262.2573,5.5385e-05,5.94e-06,0.0,0 STARLINK-3969,1 52551U 22051U   24035.79278189  .00000594  00000-0  55385-4 0  9991,2 52551  53.2202 318.3919 0001745  97.8617 262.2573 15.08840893 96191,6917.878,95.437,540.95,538.535,0.0
52551.0,STARLINK-3969,PAYLOAD,2024-02-04 22:12:22,15.08839707,0.0001735,53.2201,317.7969,102.0622,258.0564,4.0625e-05,3.59e-06,0.0,0 STARLINK-3969,1 52551U 22051U   24035.92526216  .00000359  00000-0  40625-4 0  9993,2 52551  53.2201 317.7969 0001735 102.0622 258.0564 15.08839707 96142,6917.881,95.438,540.947,538.546,0.0
52551.0,STARLINK-3969,PAYLOAD,2024-02-05 04:33:54,15.0884658,0.0001523,53.2184,316.603,101.4371,258.6793,4.3115e-05,3.98e-06,0.0,0 STARLINK-3969,1 52551U 22051U   24036.19021610  .00000398  00000-0  43115-4 0  9991,2 52551  53.2184 316.6030 0001523 101.4371 258.6793 15.08846580 96189,6917.86,95.437,540.779,538.672,0.0
52551.0,STARLINK-3969,PAYLOAD,2024-02-05 22:03:09,15.08844241,0.0001416,53.2173,313.3305,101.7613,258.3538,-1.717e-05,-5.61e-06,0.0,0 STARLINK-3969,1 52551U 22051U   24036.91886069 -.00000561  00000-0 -17170-4 0  9994,2 52551  53.2173 313.3305 0001416 101.7613 258.3538 15.08844241 96297,6917.867,95.437,540.712,538.753,0.0
52551.0,STARLINK-3969,PAYLOAD,2024-02-06 01:13:55,15.08851651,0.0001462,53.2188,312.7424,96.3999,263.716,0.00013548,1.87e-05,0.0,0 STARLINK-3969,1 52551U 22051U   24037.05133255  .00001870  00000-0  13548-3 0  9998,2 52551  53.2188 312.7424 0001462  96.3999 263.7160 15.08851651 96312,6917.845,95.437,540.721,538.698,0.0
52551.0,STARLINK-3969,PAYLOAD,2024-02-06 21:53:56,15.08840731,0.0001536,53.2176,308.8705,109.8858,250.23,4.2097e-05,3.82e-06,0.0,0 STARLINK-3969,1 52551U 22051U   24037.91246094  .00000382  00000-0  42097-4 0  9998,2 52551  53.2176 308.8705 0001536 109.8858 250.2300 15.08840731 96441,6917.878,95.438,540.806,538.681,0.0
52551.0,STARLINK-3969,PAYLOAD,2024-02-06 23:29:19,15.08840088,0.0001594,53.2184,308.5753,114.5851,245.5307,5.3459e-05,5.63e-06,0.0,0 STARLINK-3969,1 52551U 22051U   24037.97870143  .00000563  00000-0  53459-4 0  9997,2 52551  53.2184 308.5753 0001594 114.5851 245.5307 15.08840088 96528,6917.88,95.438,540.848,538.642,0.0
52551.0,STARLINK-3969,PAYLOAD,2024-02-07 10:37:02,15.08838757,0.000136,53.2175,306.4922,84.7577,275.357,2.2416e-05,6.9e-07,0.0,0 STARLINK-3969,1 52551U 22051U   24038.44238436  .00000069  00000-0  22416-4 0  9993,2 52551  53.2175 306.4922 0001360  84.7577 275.3570 15.08838757 96520,6917.884,95.438,540.69,538.808,0.0
52551.0,STARLINK-3969,PAYLOAD,2024-02-07 21:44:44,15.08842896,0.0001459,53.2185,304.4158,107.6882,252.427,-0.00011899,-2.181e-05,0.0,0 STARLINK-3969,1 52551U 22051U   24038.90606888 -.00002181  00000-0 -11899-3 0  9995,2 52551  53.2185 304.4158 0001459 107.6882 252.4270 15.08842896 96592,6917.872,95.437,540.746,538.727,0.0
52551.0,STARLINK-3969,PAYLOAD,2024-02-08 02:30:53,15.08843972,0.0001555,53.2186,303.5216,99.2406,260.8762,-1.1501e-05,-4.71e-06,0.0,0 STARLINK-3969,1 52551U 22051U   24039.10478421 -.00000471  00000-0 -11501-4 0  9999,2 52551  53.2186 303.5216 0001555  99.2406 260.8762 15.08843972 96699,6917.868,95.437,540.809,538.658,0.0
52551.0,STARLINK-3969,PAYLOAD,2024-02-08 10:27:49,15.08837657,0.0001558,53.2189,302.0332,101.4186,258.6982,5.8694e-05,6.46e-06,0.0,0 STARLINK-3969,1 52551U 22051U   24039.43598758  .00000646  00000-0  58694-4 0  9997,2 52551  53.2189 302.0332 0001558 101.4186 258.6982 15.08837657 96679,6917.888,95.438,540.83,538.675,0.0
52551.0,STARLINK-3969,PAYLOAD,2024-02-08 21:35:31,15.08834453,0.0001495,53.2186,299.9524,87.5688,272.5476,6.8476e-05,8.02e-06,0.0,0 STARLINK-3969,1 52551U 22051U   24039.89967119  .00000802  00000-0  68476-4 0  9991,2 52551  53.2186 299.9524 0001495  87.5688 272.5476 15.08834453 96746,6917.897,95.438,540.797,538.728,0.0
52551.0,STARLINK-3969,PAYLOAD,2024-02-09 00:46:17,15.08836588,0.0001523,53.2173,299.3572,84.9499,275.1667,7.6598e-05,9.31e-06,0.0,0 STARLINK-3969,1 52551U 22051U   24040.03215001  .00000931  00000-0  76598-4 0  9992,2 52551  53.2173 299.3572 0001523  84.9499 275.1667 15.08836588 96766,6917.891,95.438,540.809,538.702,0.0
52551.0,STARLINK-3969,PAYLOAD,2024-02-09 16:40:09,15.08835727,0.0001459,53.2168,296.3872,76.5827,283.5328,0.00011457,1.536e-05,0.0,0 STARLINK-3969,1 52551U 22051U   24040.69455214  .00001536  00000-0  11457-3 0  9990,2 52551  53.2168 296.3872 0001459  76.5827 283.5328 15.08835727 96930,6917.893,95.438,540.768,538.749,0.0
52551.0,STARLINK-3969,PAYLOAD,2024-02-10 00:37:04,15.08845263,0.0001422,53.2176,294.8985,83.2664,276.849,7.385e-05,8.88e-06,0.0,0 STARLINK-3969,1 52551U 22051U   24041.02574737  .00000888  00000-0  73850-4 0  9995,2 52551  53.2176 294.8985 0001422  83.2664 276.8490 15.08845263 96987,6917.864,95.437,540.713,538.746,0.0
52551.0,STARLINK-3969,PAYLOAD,2024-02-10 21:17:05,15.08837548,0.0001256,53.2178,291.0326,83.9864,276.1271,0.0001041,1.369e-05,0.0,0 STARLINK-3969,1 52551U 22051U   24041.88687201  .00001369  00000-0  10410-3 0  9997,2 52551  53.2178 291.0326 0001256  83.9864 276.1271 15.08837548 97114,6917.888,95.438,540.622,538.884,0.0
52551.0,STARLINK-3969,PAYLOAD,2024-02-10 22:52:28,15.0884053,0.0001488,53.2182,290.7364,65.1744,294.9403,9.1904e-05,1.175e-05,0.0,0 STARLINK-3969,1 52551U 22051U   24041.95311185  .00001175  00000-0  91904-4 0  9993,2 52551  53.2182 290.7364 0001488  65.1744 294.9403 15.08840530 97056,6917.879,95.438,540.773,538.714,0.0
52551.0,STARLINK-3969,PAYLOAD,2024-02-11 02:03:14,15.08849581,0.0001324,53.2191,290.1342,91.9848,268.1296,4.3881e-05,4.11e-06,0.0,0 STARLINK-3969,1 52551U 22051U   24042.08558486  .00000411  00000-0  43881-4 0  9998,2 52551  53.2191 290.1342 0001324  91.9848 268.1296 15.08849581 97145,6917.851,95.437,540.632,538.8,0.0
52551.0,STARLINK-3969,PAYLOAD,2024-02-11 21:07:52,15.08848718,0.0001455,53.2178,286.5669,105.9175,254.1978,2.8187e-05,1.61e-06,0.0,0 STARLINK-3969,1 52551U 22051U   24042.88046423  .00000161  00000-0  28187-4 0  9993,2 52551  53.2178 286.5669 0001455 105.9175 254.1978 15.08848718 97193,6917.854,95.437,540.725,538.712,0.0
52551.0,STARLINK-3969,PAYLOAD,2024-02-11 22:43:15,15.08850657,0.0001525,53.2173,286.2691,107.4849,252.631,4.3432e-05,4.03e-06,0.0,0 STARLINK-3969,1 52551U 22051U   24042.94670216  .00000403  00000-0  43432-4 0  9992,2 52551  53.2173 286.2691 0001525 107.4849 252.6310 15.08850657 97203,6917.848,95.437,540.768,538.658,0.0
52551.0,STARLINK-3969,PAYLOAD,2024-02-12 19:23:16,15.08840452,0.0001681,53.2166,282.4048,117.9925,242.1237,8.7785e-06,-1.48e-06,0.0,0 STARLINK-3969,1 52551U 22051U   24043.80782951 -.00000148  00000-0  87785-5 0  9995,2 52551  53.2166 282.4048 0001681 117.9925 242.1237 15.08840452 97409,6917.879,95.438,540.907,538.581,0.0
52551.0,STARLINK-3969,PAYLOAD,2024-02-12 22:34:02,15.08838982,0.0001311,53.2169,281.8109,100.2449,259.8691,-3.6274e-06,-3.46e-06,0.0,0 STARLINK-3969,1 52551U 22051U   24043.94031094 -.00000346  00000-0 -36274-5 0  9993,2 52551  53.2169 281.8109 0001311 100.2449 259.8691 15.08838982 97357,6917.884,95.438,540.655,538.842,0.0
52551.0,STARLINK-3969,PAYLOAD,2024-02-13 22:24:49,15.08845444,0.0001363,53.2172,277.3578,116.4879,243.6253,-1.2878e-05,-4.93e-06,0.0,0 STARLINK-3969,1 52551U 22051U   24044.93390906 -.00000493  00000-0 -12878-4 0  9999,2 52551  53.2172 277.3578 0001363 116.4879 243.6253 15.08845444 97507,6917.864,95.437,540.672,538.786,0.0
52551.0,STARLINK-3969,PAYLOAD,2024-02-14 01:35:35,15.08850948,0.0001081,53.2158,276.7568,96.6349,263.4766,3.2355e-05,2.27e-06,0.0,0 STARLINK-3969,1 52551U 22051U   24045.06638411  .00000227  00000-0  32355-4 0  9995,2 52551  53.2158 276.7568 0001081  96.6349 263.4766 15.08850948 97594,6917.847,95.437,540.46,538.964,0.0
52551.0,STARLINK-3969,PAYLOAD,2024-02-14 07:57:08,15.08847054,9.94e-05,53.2156,275.5659,88.779,271.3316,1.5754e-05,-3.7e-07,0.0,0 STARLINK-3969,1 52551U 22051U   24045.33134617 -.00000037  00000-0  15754-4 0  9998,2 52551  53.2156 275.5659 0000994  88.7790 271.3316 15.08847054 97564,6917.859,95.437,540.411,539.036,0.0
52551.0,STARLINK-3969,PAYLOAD,2024-02-14 15:54:05,15.08830647,0.0001066,53.2171,274.0812,98.1021,262.0092,3.6429e-05,2.92e-06,0.0,0 STARLINK-3969,1 52551U 22051U   24045.66255816  .00000292  00000-0  36429-4 0  9993,2 52551  53.2171 274.0812 0001066  98.1021 262.0092 15.08830647 97680,6917.909,95.438,540.511,539.037,0.0
52551.0,STARLINK-3969,PAYLOAD,2024-02-14 22:15:37,15.08836116,0.000112,53.2165,272.8943,102.3047,257.8071,9.7047e-05,1.257e-05,0.0,0 STARLINK-3969,1 52551U 22051U   24045.92751460  .00001257  00000-0  97047-4 0  9993,2 52551  53.2165 272.8943 0001120 102.3047 257.8071 15.08836116 97654,6917.892,95.438,540.532,538.982,0.0
52551.0,STARLINK-3969,PAYLOAD,2024-02-14 23:51:00,15.08837722,0.0001118,53.2171,272.5966,101.1748,258.937,0.0001078,1.428e-05,0.0,0 STARLINK-3969,1 52551U 22051U   24045.99375361  .00001428  00000-0  10780-3 0  9990,2 52551  53.2171 272.5966 0001118 101.1748 258.9370 15.08837722 97732,6917.887,95.438,540.526,538.979,0.0
52551.0,STARLINK-3969,PAYLOAD,2024-02-15 07:47:56,15.0883309,0.000106,53.216,271.1102,90.4663,269.645,3.3891e-05,2.52e-06,0.0,0 STARLINK-3969,1 52551U 22051U   24046.32495970  .00000252  00000-0  33891-4 0  9990,2 52551  53.2160 271.1102 0001060  90.4663 269.6450 15.08833090 97786,6917.902,95.438,540.5,539.033,0.0
